OBJECT_NAME,OBJECT_ID,EPOCH,MEAN_MOTION,ECCENTRICITY,INCLINATION,RA_OF_ASC_NODE,ARG_OF_PERICENTER,MEAN_ANOMALY,EPHEMERIS_TYPE,CLASSIFICATION_TYPE,NORAD_CAT_ID,ELEMENT_SET_NO,REV_AT_EPOCH,BSTAR,MEAN_MOTION_DOT,MEAN_MOTION_DDOT
IRIDIUM 135,2017-083A,2026-06-03T13:07:15.082176,14.34218697,.00021791,86.3958,327.7204,90.3486,269.7960,0,U,43070,999,44219,.25971296E-4,.93E-6,0
IRIDIUM 138,2017-083B,2026-06-03T13:43:47.065728,14.34217320,.00025672,86.3962,327.4010,89.3700,270.7790,0,U,43071,999,44218,.35456087E-4,.119E-5,0
IRIDIUM 116,2017-083C,2026-06-03T12:58:06.840480,14.34218702,.00018632,86.3955,327.7086,92.8013,267.3396,0,U,43072,999,44221,.13424294E-4,.57E-6,0
IRIDIUM 130,2017-083D,2026-06-03T13:52:55.113888,14.34218977,.00020083,86.3967,327.9672,85.9808,274.1618,0,U,43073,999,44216,.84724346E-4,.257E-5,0
IRIDIUM 151,2017-083E,2026-06-03T14:56:51.085536,14.34217592,.00022157,86.3953,327.7314,88.9919,271.1530,0,U,43074,999,44219,.29932195E-4,.104E-5,0
IRIDIUM 134,2017-083F,2026-06-03T12:30:43.197984,14.34218285,.00021072,86.3960,327.7823,88.2994,271.8443,0,U,43075,999,44214,.35909513E-4,.12E-5,0
IRIDIUM 137,2017-083G,2026-06-03T12:48:58.894272,14.34218432,.00018965,86.3960,327.8694,101.3050,258.8359,0,U,43076,999,44221,.23380222E-4,.85E-6,0
IRIDIUM 141,2017-083H,2026-06-03T14:20:19.076064,14.34217914,.00022157,86.3955,327.6740,91.8258,268.3192,0,U,43077,999,44222,-.3232758E-5,.11E-6,0
IRIDIUM 153,2017-083J,2026-06-03T11:30:59.465088,14.34217679,.00023749,86.3951,296.2035,90.5632,269.5836,0,U,43078,999,44331,.4444856E-5,.32E-6,0
IRIDIUM 131,2017-083K,2026-06-03T12:21:35.091072,14.34218249,.00022077,86.3963,327.8940,93.1742,266.9706,0,U,43079,999,44214,.4892311E-5,.33E-6,0
IRIDIUM 144,2018-030A,2026-06-03T11:40:07.199616,14.34218560,.00020404,86.3955,296.1314,93.0281,267.1149,0,U,43249,999,42817,.32578566E-4,.111E-5,0
IRIDIUM 149,2018-030B,2026-06-03T11:49:15.454272,14.34217377,.0002153,86.3943,296.0950,93.2178,266.9264,0,U,43250,999,42819,-.55178E-5,.4E-7,0
IRIDIUM 157,2018-030C,2026-06-03T10:36:11.413728,14.34217474,.00020582,86.3944,296.1692,92.7250,267.4181,0,U,43251,999,42816,-.5507641E-5,.4E-7,0
IRIDIUM 140,2018-030D,2026-06-03T11:03:35.415648,14.34217590,.00021467,86.3948,296.1733,91.5766,268.5676,0,U,43252,999,42822,.1001072E-5,.23E-6,0
IRIDIUM 145,2018-030E,2026-06-03T10:45:19.169856,14.34218485,.00018795,86.3951,296.1509,94.4998,265.6412,0,U,43253,999,42815,.16917213E-4,.67E-6,0
IRIDIUM 146,2018-030F,2026-06-02T22:34:39.384768,14.34217534,.00020501,86.3948,296.3756,93.0477,267.0954,0,U,43254,999,42809,-.5310703E-5,.5E-7,0
IRIDIUM 148,2018-030G,2026-06-03T11:12:43.337664,14.34217830,.00021186,86.3949,296.1983,95.9083,264.2355,0,U,43255,999,42820,.2919182E-5,.28E-6,0
IRIDIUM 142,2018-030H,2026-06-03T10:27:03.343968,14.34217573,.00019977,86.3945,296.1006,95.5987,264.5436,0,U,43256,999,42816,.6562951E-5,.38E-6,0
IRIDIUM 150,2018-030J,2026-06-03T11:21:51.420384,14.34217435,.00020432,86.3945,296.2012,91.6251,268.5179,0,U,43257,999,42819,-.5493968E-5,.4E-7,0
IRIDIUM 143,2018-030K,2026-06-03T10:54:27.405504,14.34217324,.00019371,86.3948,296.3013,92.4006,267.7412,0,U,43258,999,42812,-.9343857E-5,-.6E-7,0
IRIDIUM 161,2018-047C,2026-06-03T07:16:04.141344,14.43281947,.00024701,86.4479,94.2760,89.9942,270.1541,0,U,43478,999,42313,.10576866E-3,.376E-5,0
IRIDIUM 152,2018-047D,2026-06-03T06:54:14.313888,14.34217603,.00023649,86.3954,94.1433,85.1257,275.0209,0,U,43479,999,42049,.4778487E-5,.33E-6,0
IRIDIUM 147,2018-047E,2026-06-03T07:03:22.088160,14.34217712,.00021682,86.3956,94.1456,84.3251,275.8192,0,U,43480,999,42049,.4536695E-4,.147E-5,0
IRIDIUM 110,2018-047F,2026-06-03T07:12:30.317760,14.34217825,.00025587,86.3956,94.2344,89.2093,270.9396,0,U,43481,999,42048,.9709567E-5,.47E-6,0
IRIDIUM 162,2018-047G,2026-06-03T07:06:58.789728,14.43273285,.00023996,86.4477,94.1694,85.2096,274.9379,0,U,43482,999,42312,.10982343E-3,.39E-5,0
IRIDIUM 160,2018-061A,2026-06-03T05:54:30.513600,14.34217702,.00022699,86.3969,62.6255,87.5514,272.5941,0,U,43569,999,41137,.23908606E-4,.87E-6,0
IRIDIUM 166,2018-061B,2026-06-03T06:31:02.465184,14.34217804,.00020854,86.3967,62.5657,84.4353,275.7080,0,U,43570,999,41140,.9455637E-5,.46E-6,0
IRIDIUM 158,2018-061C,2026-06-03T05:45:22.290048,14.34216372,.00023442,86.3968,62.5888,83.5835,276.5628,0,U,43571,999,41136,.16636328E-4,.66E-6,0
IRIDIUM 165,2018-061D,2026-06-03T06:21:54.262368,14.34219521,.00021142,86.3971,62.6242,83.6073,276.5364,0,U,43572,999,41139,.1025818E-3,.307E-5,0
IRIDIUM 155,2018-061E,2026-06-03T05:27:06.480576,14.34217910,.0002211,86.3966,62.5102,81.2018,278.9429,0,U,43573,999,41135,.2846E-4,.99E-6,0
